{
  "norad_id": 41328,
  "name": "NAVSTAR 76 (USA 266)",
  "history": [
    {
      "epoch": "2026-03-28T14:15:38.743488Z",
      "apogee_km": 20437.60918938983,
      "perigee_km": 19928.24342854365,
      "latitude_deg": 1.9551349664517843e-05,
      "longitude_deg": 52.72505759959898,
      "height_km": 20282.13154660996,
      "semi_major_axis_km": 26561.06330896674,
      "eccentricity": 0.00958858,
      "inclination_deg": 55.4724,
      "raan_deg": 92.6531,
      "arg_perigee_deg": 246.602,
      "mean_anomaly_deg": 112.4215,
      "mean_motion_rev_day": 2.005555
    }
  ]
}